#dP2023  5  3  6  0  0.00000000      96 __u+U ITR00 EXT  IAC
## 2260 280800.00000000   900.00000000 60067 0.2500000000000
+  119   C06C07C08C09C10C11C12C13C14C16C19C20C21C22C23C24C25
+        C26C27C28C29C30C32C33C34C35C36C37C38C39C40C41C42C43
+        C44C45C46E02E03E04E05E07E08E09E10E11E12E13E14E15E18
+        E19E21E24E25E26E27E30E31E33E34E36G01G02G03G04G05G06
+        G07G08G09G10G11G12G13G14G15G16G17G18G19G20G21G22G23
+        G24G25G26G27G28G29G30G31G32J02J03J04R01R02R03R04R05
+        R07R08R09R11R12R13R14R15R16R17R18R19R20R21R22R24R25
++        11  8 10 10  9  9  9  8  9 11  8  8  7  6  8  8  7
++         7  8  6  7  9  6  9  7  7  8  7  9 10 11  7  8  8
++         7  9  9  7  6  7  7  7  7  8  8 12  6  9  8  9  8
++         6  7  8  6  8  8  7  7  8 10  8  6  7  5  7  7  8
++         6  8  7  7  7  7  8  6  7  7  6  7  6  7  8  6  7
++         7  7  6  7  7  7  7  6  7  7  9 10  8  7  8  9  7
++         8  7  6  7 10  8  7  6  9  8  9  8  8  8  7  6 11
%c M  cc GPS ccc cccc cccc cccc cccc ccccc ccccc ccccc ccccc
%c cc cc ccc ccc cccc cccc cccc cccc ccccc ccccc ccccc ccccc
%f  0.0000000  0.000000000  0.00000000000  0.000000000000000
%f  0.0000000  0.000000000  0.00000000000  0.000000000000000
%i    0    0    0    0      0      0      0      0         0
%i    0    0    0    0      0      0      0      0         0
/* IAC                                ULTRA-RAPID PREDICTION
/* S/V CLOCKS ARE ALIGNED TO GNSS TIME                      
/* G:C1WC2W R:C1PC2P E:C1XC5X C:C2IC6I J:C1CC2S             
/* PCV:IGS20_2247 OL/AL:FES2004  NONE     YN ORB:CoN CLK:CoN
*  2023 05 03 22  0  0.00000000
PC06 -16511.608439  26703.968281  28062.511271   -194.532895
PC07  -9739.558282  40374.641145   7867.970636     34.813125
PC08    123.034166  24809.768892 -34050.845252    493.125890
PC09  -5967.409793  26058.867703  32916.731968    695.251703
PC10  -3648.661041  42292.924009    860.006884    -49.087122
PC11  16160.741210 -18622.510302  13113.115248    599.808392
PC12  25348.217046 -10758.980284  -4480.611027    614.141501
PC13   6740.845322  28548.003333 -30033.415855    266.730759
PC14   6692.658133 -25096.489790  10140.120323    209.169912
PC16 -19967.158835  26149.808851  26439.449740     90.000938
PC19   -406.822134  27900.616777   -982.654103   -906.520407
PC20 -10957.415571  19798.006056 -16338.794234    589.638460
PC21  15732.421405   1064.822204  23045.149936   -912.522120
PC22  10868.665170  20370.196911  15701.801272   -505.458240
PC23 -19679.945573 -18003.004200  -8204.094673   -919.673989
PC24  16627.481362  -7922.163001 -20970.351115    -96.503322
PC25  -3702.175968 -18653.628604 -20437.928848    119.290336
PC26  25458.082352   5595.795938  -9934.727137   -115.212505
PC27 -24743.096423   4468.462607  12066.484738    134.897977
PC28 -14295.508602  -9473.567834  22013.518153     99.629910
PC29  -5584.520192  19379.210479 -19296.235874    115.564627
PC30 -21679.245024  17031.582755  -4252.745717     -0.002045
PC32 -15732.721823   -970.531581 -23006.874660   -568.053067
PC33    333.945967 -27868.848172   1129.545426   -877.978330
PC34  21008.965698 -17556.348157   5450.141412    162.792407
PC35  14005.304739   9595.409419 -22170.581922    634.382439
PC36   2454.138601  18523.683687  20747.722375   -463.063302
PC37 -25497.707582  -7143.815495   8854.479271   -785.420726
PC38  -8904.053593  21774.660572 -34947.640988     75.960660
PC39 -24187.564710  26593.553718  21916.643103     -2.801962
PC40 -14827.927613  38191.198833  10475.385694    -22.160189
PC41 -10622.984990 -20847.088786 -15140.841781   -931.654894
PC42  11630.718538 -18580.022943  17300.349042   -708.009647
PC43   6475.559585 -19620.110021  18755.171223     19.696810
PC44  24583.780752  -5151.723320 -12212.948192     95.478043
PC45  19983.310718  17825.285624   7817.027133    -93.047912
PC46 -15298.596015   8944.743253  21563.263914    -51.470279
PE02  14975.932501  -7468.428497 -24421.413787     36.042330
PE03  20446.088894 -17962.019405  11627.863013   -675.423444
PE04 -10896.405802  26755.959333   6470.275733   -114.395200
PE05  18180.877423   1628.961260  23310.494847    -70.822912
PE07  -5112.813980 -20141.401203 -21062.922715    -42.368591
PE08  11089.273063 -26722.570062  -6212.373877    -77.398296
PE09   4894.862378  20214.109804  21076.947480     -2.288070
PE10   3209.850888  15954.734768 -24736.070108   -531.087454
PE11  15091.248132  14063.698900 -21250.664262   1811.908711
PE12  -8090.998870  15350.900330 -23983.481691   -523.920734
PE13 -14270.110952 -14206.734981  21689.294365    -19.029554
PE14  21240.893820  -9412.178374 -13442.640198    214.968711
PE15   8498.304461 -15218.301330  23927.040795    -19.117010
PE18 -19396.715652  23723.060369    786.181920     22.365376
PE19 -20886.444863  15743.916550 -13845.643669  -2617.784831
PE21 -20410.179096 -12177.459124  17640.839599   -527.025250
PE24  13824.206487  26157.777888    396.847379    -78.993467
PE25  20408.724466  12497.411412 -17415.702425   -604.446522
PE26 -28631.364842  -4500.308564   5998.263533     93.685655
PE27 -14351.471721 -25892.322023    303.611889    -40.596726
PE30    682.049774 -23947.628437 -17405.667304   -143.873365
PE31   -102.412750  24208.208465  17034.759665   -522.954373
PE33 -26050.076477   7242.183095 -12030.454239   -444.964951
PE34  25964.486465  -7366.089022  12146.255342    -43.522000
PE36  28403.615949   4891.845649  -6780.879211    -50.755071
PG01  13753.753285  13507.180103 -18761.314560    188.109524
PG02 -25212.081593   4623.191028  -6178.106630   -599.825048
PG03  12983.645132  23135.038158   2145.979664   -313.331552
PG04   6511.332435  15476.786069  20565.498909     32.363117
PG05  -2567.481535 -22986.493785  12776.587061   -125.811775
PG06  23355.417234  -5768.452686  11427.853966    588.073661
PG07  24715.484805   7317.448055   7842.323204    186.876785
PG08  -3121.685305  22562.605147 -13396.840609   -120.751711
PG09  14614.307840   5303.245408  21466.744968   -166.677821
PG10 -15548.775570   1019.310358 -21377.674670    -35.427652
PG11  11046.345244 -12917.994928  20409.279068   -184.036725
PG12  -9772.304335 -24747.116877   -448.416885   -371.614600
PG13  11671.658954 -22137.966915  -8756.899969    514.830221
PG14  16964.103808   2103.181167 -20353.384052     44.950701
PG15   -404.863580 -22807.084709 -13840.789402     36.289716
PG16  -2681.310390  21451.855159  14810.307540   -504.011803
PG17  19730.644258  -9256.094320 -14827.039261    713.401114
PG18 -25879.935786  -4919.629868   3979.457017   -251.194480
PG19  19995.478070 -15375.713356  -8045.777956    312.078417
PG20   3987.005973 -18023.729191  19203.229428    435.550128
PG21   5470.706193  14583.712589 -21061.925843    153.994646
PG22 -18425.807351  18429.614623  -4197.785102    475.190549
PG23 -18163.485848 -11238.462964 -15877.534061     21.388036
PG24  -9834.330172 -14754.985745 -20239.849224   -175.476317
PG25 -16721.523893 -18498.771124   9209.323433    440.242546
PG26 -10909.963210  11964.969609  20892.210001    241.208950
PG27 -12137.050608  23088.861316  -3868.666070     45.179711
PG28 -24160.318291   5779.807571   9366.849656     73.801495
PG29 -11505.340107  -9385.912089  21966.874069   -598.052933
PG30  26433.039279   -680.416470  -3621.203379   -519.156269
PG31 -18174.208226  10160.695706  16573.334960   -215.349588
PG32 -19208.989711  12213.591335 -13341.302943   -467.623409
PJ02 -24845.109783  24772.208977  28337.987164     -1.746336
PJ03 -35078.548710  19035.810748  -8910.934938      3.428078
PJ04 -20647.843497  29980.803014 -16173.975797     94.368685
PR01  -9947.503514  -6479.323657 -22567.954468     56.807354
PR02 -11326.359652  13180.832129 -18595.810941    -22.895728
PR03  -6109.043938  24449.688516  -3707.050996     77.177715
PR04   2076.626003  21915.305386  12914.018616    185.787292
PR05   9269.926665   7546.984051  22548.002520    111.971645
PR07   5854.991963 -24672.050499   3032.881355     55.144411
PR08  -2289.584509 -21858.381253 -12906.665060    -70.628065
PR09  14980.648432  -1123.769412 -20620.612755    118.175410
PR11 -13773.723297 -18184.549866 -11387.820978    -48.383791
PR12 -20868.839967 -12591.146461   7574.007459     26.964274
PR13 -15967.750387   -673.815029  19865.609493    -34.641112
PR14   -260.985539  13400.253195  21717.748301     24.633807
PR15  14379.330036  18391.382512  10304.429584     89.462260
PR16  20933.975789  12692.724472  -7218.602106     14.193232
PR17 -12832.771111  13130.166352 -17722.934172    626.783048
PR18   4292.664292   9571.913960 -23243.127503     79.711124
PR19  18190.396897   2538.179410 -17707.629586   -231.303357
PR20  24168.646477  -8133.104800   1290.110613    -92.250173
PR21  11429.230611 -12939.640047  18762.743913     -4.745263
PR22  -4992.935952  -9811.674483  23031.188916     81.749329
PR24 -23711.640378   9222.832551  -1895.561955    167.249426
PR25  13473.824358 -12737.199839  17511.159426     66.150037
EOF
